<?xml version="1.0" encoding="UTF-8"?>
<ndm xmlns:xsi="http://www.w3.org/2001/XMLSchema-instance" xsi:noNamespaceSchemaLocation="https://sanaregistry.org/r/ndmxml_unqualified/ndmxml-2.0.0-master-2.0.xsd">
<omm id="CCSDS_OMM_VERS" version="2.0">
<header><CREATION_DATE/><ORIGINATOR/></header><body><segment><metadata><OBJECT_NAME>KUIPER-00008</OBJECT_NAME><OBJECT_ID>2025-088A</OBJECT_ID><CENTER_NAME>EARTH</CENTER_NAME><REF_FRAME>TEME</REF_FRAME><TIME_SYSTEM>UTC</TIME_SYSTEM><MEAN_ELEMENT_THEORY>SGP4</MEAN_ELEMENT_THEORY></metadata><data><meanElements><EPOCH>2025-12-29T07:27:44.129952</EPOCH><MEAN_MOTION>14.98641316</MEAN_MOTION><ECCENTRICITY>.00080639</ECCENTRICITY><INCLINATION>51.8920</INCLINATION><RA_OF_ASC_NODE>47.7268</RA_OF_ASC_NODE><ARG_OF_PERICENTER>224.8172</ARG_OF_PERICENTER><MEAN_ANOMALY>135.2148</MEAN_ANOMALY></meanElements><tleParameters><EPHEMERIS_TYPE>0</EPHEMERIS_TYPE><CLASSIFICATION_TYPE>U</CLASSIFICATION_TYPE><NORAD_CAT_ID>63724</NORAD_CAT_ID><ELEMENT_SET_NO>999</ELEMENT_SET_NO><REV_AT_EPOCH>3750</REV_AT_EPOCH><BSTAR>.13032255E-3</BSTAR><MEAN_MOTION_DOT>.1318E-4</MEAN_MOTION_DOT><MEAN_MOTION_DDOT>0</MEAN_MOTION_DDOT></tleParameters></data></segment></body></omm>
<omm id="CCSDS_OMM_VERS" version="2.0">
<header><CREATION_DATE/><ORIGINATOR/></header><body><segment><metadata><OBJECT_NAME>KUIPER-00009</OBJECT_NAME><OBJECT_ID>2025-088B</OBJECT_ID><CENTER_NAME>EARTH</CENTER_NAME><REF_FRAME>TEME</REF_FRAME><TIME_SYSTEM>UTC</TIME_SYSTEM><MEAN_ELEMENT_THEORY>SGP4</MEAN_ELEMENT_THEORY></metadata><data><meanElements><EPOCH>2025-12-28T11:18:47.263968</EPOCH><MEAN_MOTION>14.79879719</MEAN_MOTION><ECCENTRICITY>.00107265</ECCENTRICITY><INCLINATION>51.9039</INCLINATION><RA_OF_ASC_NODE>61.5495</RA_OF_ASC_NODE><ARG_OF_PERICENTER>219.7573</ARG_OF_PERICENTER><MEAN_ANOMALY>140.2604</MEAN_ANOMALY></meanElements><tleParameters><EPHEMERIS_TYPE>0</EPHEMERIS_TYPE><CLASSIFICATION_TYPE>U</CLASSIFICATION_TYPE><NORAD_CAT_ID>63725</NORAD_CAT_ID><ELEMENT_SET_NO>999</ELEMENT_SET_NO><REV_AT_EPOCH>3723</REV_AT_EPOCH><BSTAR>.13967215E-4</BSTAR><MEAN_MOTION_DOT>-.117E-5</MEAN_MOTION_DOT><MEAN_MOTION_DDOT>0</MEAN_MOTION_DDOT></tleParameters></data></segment></body></omm>
<omm id="CCSDS_OMM_VERS" version="2.0">
<header><CREATION_DATE/><ORIGINATOR/></header><body><segment><metadata><OBJECT_NAME>KUIPER-00010</OBJECT_NAME><OBJECT_ID>2025-088C</OBJECT_ID><CENTER_NAME>EARTH</CENTER_NAME><REF_FRAME>TEME</REF_FRAME><TIME_SYSTEM>UTC</TIME_SYSTEM><MEAN_ELEMENT_THEORY>SGP4</MEAN_ELEMENT_THEORY></metadata><data><meanElements><EPOCH>2025-12-29T06:13:15.537504</EPOCH><MEAN_MOTION>14.80432042</MEAN_MOTION><ECCENTRICITY>.00116347</ECCENTRICITY><INCLINATION>51.9032</INCLINATION><RA_OF_ASC_NODE>34.3763</RA_OF_ASC_NODE><ARG_OF_PERICENTER>269.6173</ARG_OF_PERICENTER><MEAN_ANOMALY>90.3456</MEAN_ANOMALY></meanElements><tleParameters><EPHEMERIS_TYPE>0</EPHEMERIS_TYPE><CLASSIFICATION_TYPE>U</CLASSIFICATION_TYPE><NORAD_CAT_ID>63726</NORAD_CAT_ID><ELEMENT_SET_NO>999</ELEMENT_SET_NO><REV_AT_EPOCH>3730</REV_AT_EPOCH><BSTAR>-.14899965E-2</BSTAR><MEAN_MOTION_DOT>-.11713E-3</MEAN_MOTION_DOT><MEAN_MOTION_DDOT>0</MEAN_MOTION_DDOT></tleParameters></data></segment></body></omm>
<omm id="CCSDS_OMM_VERS" version="2.0">
<header><CREATION_DATE/><ORIGINATOR/></header><body><segment><metadata><OBJECT_NAME>KUIPER-00011</OBJECT_NAME><OBJECT_ID>2025-088D</OBJECT_ID><CENTER_NAME>EARTH</CENTER_NAME><REF_FRAME>TEME</REF_FRAME><TIME_SYSTEM>UTC</TIME_SYSTEM><MEAN_ELEMENT_THEORY>SGP4</MEAN_ELEMENT_THEORY></metadata><data><meanElements><EPOCH>2025-12-29T07:11:14.520768</EPOCH><MEAN_MOTION>14.79946547</MEAN_MOTION><ECCENTRICITY>.00126883</ECCENTRICITY><INCLINATION>51.9010</INCLINATION><RA_OF_ASC_NODE>41.9187</RA_OF_ASC_NODE><ARG_OF_PERICENTER>242.2873</ARG_OF_PERICENTER><MEAN_ANOMALY>117.6802</MEAN_ANOMALY></meanElements><tleParameters><EPHEMERIS_TYPE>0</EPHEMERIS_TYPE><CLASSIFICATION_TYPE>U</CLASSIFICATION_TYPE><NORAD_CAT_ID>63727</NORAD_CAT_ID><ELEMENT_SET_NO>999</ELEMENT_SET_NO><REV_AT_EPOCH>3733</REV_AT_EPOCH><BSTAR>-.11316157E-3</BSTAR><MEAN_MOTION_DOT>-.1088E-4</MEAN_MOTION_DOT><MEAN_MOTION_DDOT>0</MEAN_MOTION_DDOT></tleParameters></data></segment></body></omm>
<omm id="CCSDS_OMM_VERS" version="2.0">
<header><CREATION_DATE/><ORIGINATOR/></header><body><segment><metadata><OBJECT_NAME>KUIPER-00012</OBJECT_NAME><OBJECT_ID>2025-088E</OBJECT_ID><CENTER_NAME>EARTH</CENTER_NAME><REF_FRAME>TEME</REF_FRAME><TIME_SYSTEM>UTC</TIME_SYSTEM><MEAN_ELEMENT_THEORY>SGP4</MEAN_ELEMENT_THEORY></metadata><data><meanElements><EPOCH>2025-12-29T02:24:35.852544</EPOCH><MEAN_MOTION>14.76666016</MEAN_MOTION><ECCENTRICITY>.00080422</ECCENTRICITY><INCLINATION>51.9024</INCLINATION><RA_OF_ASC_NODE>26.5418</RA_OF_ASC_NODE><ARG_OF_PERICENTER>248.8363</ARG_OF_PERICENTER><MEAN_ANOMALY>111.1738</MEAN_ANOMALY></meanElements><tleParameters><EPHEMERIS_TYPE>0</EPHEMERIS_TYPE><CLASSIFICATION_TYPE>U</CLASSIFICATION_TYPE><NORAD_CAT_ID>63728</NORAD_CAT_ID><ELEMENT_SET_NO>999</ELEMENT_SET_NO><REV_AT_EPOCH>3748</REV_AT_EPOCH><BSTAR>-.52463502E-2</BSTAR><MEAN_MOTION_DOT>-.37056E-3</MEAN_MOTION_DOT><MEAN_MOTION_DDOT>0</MEAN_MOTION_DDOT></tleParameters></data></segment></body></omm>
<omm id="CCSDS_OMM_VERS" version="2.0">
<header><CREATION_DATE/><ORIGINATOR/></header><body><segment><metadata><OBJECT_NAME>KUIPER-00013</OBJECT_NAME><OBJECT_ID>2025-088F</OBJECT_ID><CENTER_NAME>EARTH</CENTER_NAME><REF_FRAME>TEME</REF_FRAME><TIME_SYSTEM>UTC</TIME_SYSTEM><MEAN_ELEMENT_THEORY>SGP4</MEAN_ELEMENT_THEORY></metadata><data><meanElements><EPOCH>2025-12-28T21:00:50.881824</EPOCH><MEAN_MOTION>14.79874965</MEAN_MOTION><ECCENTRICITY>.00070703</ECCENTRICITY><INCLINATION>51.9029</INCLINATION><RA_OF_ASC_NODE>61.2283</RA_OF_ASC_NODE><ARG_OF_PERICENTER>147.2392</ARG_OF_PERICENTER><MEAN_ANOMALY>212.9010</MEAN_ANOMALY></meanElements><tleParameters><EPHEMERIS_TYPE>0</EPHEMERIS_TYPE><CLASSIFICATION_TYPE>U</CLASSIFICATION_TYPE><NORAD_CAT_ID>63729</NORAD_CAT_ID><ELEMENT_SET_NO>999</ELEMENT_SET_NO><REV_AT_EPOCH>3708</REV_AT_EPOCH><BSTAR>-.19312752E-3</BSTAR><MEAN_MOTION_DOT>-.1693E-4</MEAN_MOTION_DOT><MEAN_MOTION_DDOT>0</MEAN_MOTION_DDOT></tleParameters></data></segment></body></omm>
<omm id="CCSDS_OMM_VERS" version="2.0">
<header><CREATION_DATE/><ORIGINATOR/></header><body><segment><metadata><OBJECT_NAME>KUIPER-00014</OBJECT_NAME><OBJECT_ID>2025-088G</OBJECT_ID><CENTER_NAME>EARTH</CENTER_NAME><REF_FRAME>TEME</REF_FRAME><TIME_SYSTEM>UTC</TIME_SYSTEM><MEAN_ELEMENT_THEORY>SGP4</MEAN_ELEMENT_THEORY></metadata><data><meanElements><EPOCH>2025-12-28T20:58:27.202080</EPOCH><MEAN_MOTION>14.79849966</MEAN_MOTION><ECCENTRICITY>.00052625</ECCENTRICITY><INCLINATION>51.9023</INCLINATION><RA_OF_ASC_NODE>62.2050</RA_OF_ASC_NODE><ARG_OF_PERICENTER>228.6730</ARG_OF_PERICENTER><MEAN_ANOMALY>131.3780</MEAN_ANOMALY></meanElements><tleParameters><EPHEMERIS_TYPE>0</EPHEMERIS_TYPE><CLASSIFICATION_TYPE>U</CLASSIFICATION_TYPE><NORAD_CAT_ID>63730</NORAD_CAT_ID><ELEMENT_SET_NO>999</ELEMENT_SET_NO><REV_AT_EPOCH>3688</REV_AT_EPOCH><BSTAR>.4044714E-2</BSTAR><MEAN_MOTION_DOT>.30698E-3</MEAN_MOTION_DOT><MEAN_MOTION_DDOT>0</MEAN_MOTION_DDOT></tleParameters></data></segment></body></omm>
<omm id="CCSDS_OMM_VERS" version="2.0">
<header><CREATION_DATE/><ORIGINATOR/></header><body><segment><metadata><OBJECT_NAME>KUIPER-00015</OBJECT_NAME><OBJECT_ID>2025-088H</OBJECT_ID><CENTER_NAME>EARTH</CENTER_NAME><REF_FRAME>TEME</REF_FRAME><TIME_SYSTEM>UTC</TIME_SYSTEM><MEAN_ELEMENT_THEORY>SGP4</MEAN_ELEMENT_THEORY></metadata><data><meanElements><EPOCH>2025-12-29T05:28:18.328224</EPOCH><MEAN_MOTION>14.82088209</MEAN_MOTION><ECCENTRICITY>.00101751</ECCENTRICITY><INCLINATION>51.8998</INCLINATION><RA_OF_ASC_NODE>71.3776</RA_OF_ASC_NODE><ARG_OF_PERICENTER>200.5475</ARG_OF_PERICENTER><MEAN_ANOMALY>159.5081</MEAN_ANOMALY></meanElements><tleParameters><EPHEMERIS_TYPE>0</EPHEMERIS_TYPE><CLASSIFICATION_TYPE>U</CLASSIFICATION_TYPE><NORAD_CAT_ID>63731</NORAD_CAT_ID><ELEMENT_SET_NO>999</ELEMENT_SET_NO><REV_AT_EPOCH>3724</REV_AT_EPOCH><BSTAR>.65954704E-3</BSTAR><MEAN_MOTION_DOT>.5075E-4</MEAN_MOTION_DOT><MEAN_MOTION_DDOT>0</MEAN_MOTION_DDOT></tleParameters></data></segment></body></omm>

</ndm>
