KUIPER-00008            
1 63724U 25088A   25363.31092743  .00001318  00000+0  13032-3 0  9997
2 63724  51.8920  47.7268 0008063 224.8172 135.2148 14.98641316 37508
KUIPER-00009            
1 63725U 25088B   25362.47138037 -.00000117  00000+0  13967-4 0  9996
2 63725  51.9039  61.5495 0010726 219.7573 140.2604 14.79879719 37236
KUIPER-00010            
1 63726U 25088C   25363.25920761 -.00011713  00000+0 -14900-2 0  9998
2 63726  51.9032  34.3763 0011634 269.6173  90.3456 14.80432042 37309
KUIPER-00011            
1 63727U 25088D   25363.29947362 -.00001088  00000+0 -11316-3 0  9992
2 63727  51.9010  41.9187 0012688 242.2873 117.6802 14.79946547 37333
KUIPER-00012            
1 63728U 25088E   25363.10041496 -.00037056  00000+0 -52464-2 0  9998
2 63728  51.9024  26.5418 0008042 248.8363 111.1738 14.76666016 37480
KUIPER-00013            
1 63729U 25088F   25362.87558891 -.00001693  00000+0 -19313-3 0  9999
2 63729  51.9029  61.2283 0007070 147.2392 212.9010 14.79874965 37082
KUIPER-00014            
1 63730U 25088G   25362.87392595  .00030698  00000+0  40447-2 0  9994
2 63730  51.9023  62.2050 0005262 228.6730 131.3780 14.79849966 36880
KUIPER-00015            
1 63731U 25088H   25363.22798991  .00005075  00000+0  65955-3 0  9998
2 63731  51.8998  71.3776 0010175 200.5475 159.5081 14.82088209 37247
